[{"OBJECT_NAME":"STARLINK-31798","OBJECT_ID":"2024-082E","EPOCH":"2026-03-09T06:27:34.526304","MEAN_MOTION":15.27569587,"ECCENTRICITY":0.00010215,"INCLINATION":43.0027,"RA_OF_ASC_NODE":142.5253,"ARG_OF_PERICENTER":256.0206,"MEAN_ANOMALY":104.0533,"EPHEMERIS_TYPE":0,"CLASSIFICATION_TYPE":"U","NORAD_CAT_ID":59635,"ELEMENT_SET_NO":999,"REV_AT_EPOCH":10474,"BSTAR":-8.255374e-5,"MEAN_MOTION_DOT":-2.532e-5,"MEAN_MOTION_DDOT":0},{"OBJECT_NAME":"TEVEL2-3","OBJECT_ID":"2025-052J","EPOCH":"2026-03-09T15:29:22.754400","MEAN_MOTION":15.30377031,"ECCENTRICITY":0.0004761,"INCLINATION":97.3994,"RA_OF_ASC_NODE":324.7775,"ARG_OF_PERICENTER":105.7353,"MEAN_ANOMALY":254.4413,"EPHEMERIS_TYPE":0,"CLASSIFICATION_TYPE":"U","NORAD_CAT_ID":63218,"ELEMENT_SET_NO":999,"REV_AT_EPOCH":5485,"BSTAR":0.00069446,"MEAN_MOTION_DOT":0.00020365,"MEAN_MOTION_DDOT":0}]
